BANDWAGON-2 OBJECT D    
1 62380U 24247D   26068.52261193  .00011259  00000+0  40119-3 0  9994
2 62380  44.9954 115.6710 0003488 351.1453   8.9368 15.29076102 67732
STARLINK-34831          
1 65345U 25189Y   26068.60214016  .00043074  00000+0  14582-2 0  9999
2 65345  53.1574 207.1267 0001056  76.9728 283.1390 15.30195782 31108
