[{"OBJECT_NAME":"BANDWAGON-2 OBJECT D","OBJECT_ID":"2024-247D","EPOCH":"2026-03-09T12:32:33.670752","MEAN_MOTION":15.29076102,"ECCENTRICITY":0.00034883,"INCLINATION":44.9954,"RA_OF_ASC_NODE":115.671,"ARG_OF_PERICENTER":351.1453,"MEAN_ANOMALY":8.9368,"EPHEMERIS_TYPE":0,"CLASSIFICATION_TYPE":"U","NORAD_CAT_ID":62380,"ELEMENT_SET_NO":999,"REV_AT_EPOCH":6773,"BSTAR":0.00040119131,"MEAN_MOTION_DOT":0.00011259,"MEAN_MOTION_DDOT":0},{"OBJECT_NAME":"STARLINK-34831","OBJECT_ID":"2025-189Y","EPOCH":"2026-03-09T14:27:04.909824","MEAN_MOTION":15.30195782,"ECCENTRICITY":0.0001056,"INCLINATION":53.1574,"RA_OF_ASC_NODE":207.1267,"ARG_OF_PERICENTER":76.9728,"MEAN_ANOMALY":283.139,"EPHEMERIS_TYPE":0,"CLASSIFICATION_TYPE":"U","NORAD_CAT_ID":65345,"ELEMENT_SET_NO":999,"REV_AT_EPOCH":3110,"BSTAR":0.0014582,"MEAN_MOTION_DOT":0.00043074,"MEAN_MOTION_DDOT":0}]
